     2.100          NAVIGATION                              RINEX VERSION / TYPE
fic2rin                                 10/22/2011 00:43:45 PGM / RUN BY / DATE
                                                            END OF HEADER
31 11 10 21 22  0  0.0  .158619135618D-03  .522959453519D-11  .000000000000D+00
     .770000000000D+02  .672187500000D+02  .395159317115D-08 -.293107949100D+01
     .346638262272D-05  .775376881938D-02  .878982245922D-05  .515376007271D+04
     .511200000000D+06  .100582838058D-06 -.348013058152D+00  .335276126862D-07
     .980572126685D+00  .221593750000D+03 -.952042352431D+00 -.777746681985D-08
     .226080845746D-09  .100000000000D+01  .165800000000D+04  .000000000000D+00
     .240000000000D+01  .000000000000D+00 -.130385160446D-07  .770000000000D+02
     .504006000000D+06  .400000000000D+01
16 11 10 21 23  0  0.0 -.204641837627D-03 -.204636307899D-11  .000000000000D+00
     .116000000000D+03 -.250625000000D+02  .432875173846D-08  .132464586390D+01
    -.111758708954D-05  .614370335825D-02  .421702861786D-05  .515353796768D+04
     .514800000000D+06 -.670552253723D-07  .722921715974D+00  .221654772758D-06
     .977948190005D+00  .305656250000D+03 -.703251887092D-01 -.820177020808D-08
     .210723063176D-10  .100000000000D+01  .165800000000D+04  .000000000000D+00
     .340000000000D+01  .000000000000D+00 -.977888703346D-08  .116000000000D+03
     .504006000000D+06  .600000000000D+01
16 11 10 21 21 59 44.0 -.204635318369D-03 -.216004991671D-11  .000000000000D+00
     .230000000000D+02 -.233750000000D+02  .434303804782D-08  .797159410329D+00
    -.115297734737D-05  .614382966887D-02  .419095158577D-05  .515353829765D+04
     .511184000000D+06  .111758708954D-06  .722951018223D+00  .121071934700D-06
     .977947910587D+00  .305812500000D+03 -.703037233123D-01 -.827070165078D-08
     .875036448780D-10  .100000000000D+01  .165800000000D+04  .000000000000D+00
     .240000000000D+01  .000000000000D+00 -.977888703346D-08  .230000000000D+02
     .504486000000D+06  .400000000000D+01
 2 11 10 21 21 59 44.0  .361897516996D-03  .170530256582D-11  .000000000000D+00
     .200000000000D+02  .384375000000D+02  .513914263735D-08 -.142113157252D+01
     .194646418095D-05  .105532935122D-01  .978633761406D-05  .515358802605D+04
     .511184000000D+06  .465661287308D-07  .276310751509D+01 -.134110450745D-06
     .939133428711D+00  .179031250000D+03 -.292248518668D+01 -.826320133836D-08
     .419303179946D-09  .100000000000D+01  .165800000000D+04  .000000000000D+00
     .240000000000D+01  .000000000000D+00 -.172294676304D-07  .200000000000D+02
     .504636000000D+06  .400000000000D+01
29 11 10 21 21 59 44.0  .250466167927D-03  .341060513165D-11  .000000000000D+00
     .120000000000D+02 -.688437500000D+02  .441768401427D-08  .265841477314D+01
    -.382959842682D-05  .212962529622D-02  .104717910290D-04  .515370986938D+04
     .511184000000D+06  .353902578354D-07  .177349549972D+01  .242143869400D-07
     .962004294975D+00  .178031250000D+03 -.116555644569D+01 -.797497504686D-08
    -.935753263594D-10  .100000000000D+01  .165800000000D+04  .000000000000D+00
     .240000000000D+01  .000000000000D+00 -.931322574615D-08  .120000000000D+02
     .510606000000D+06  .400000000000D+01
 2 11 10 21 23 59 44.0  .361910089850D-03  .170530256582D-11  .000000000000D+00
     .210000000000D+02  .284062500000D+02  .513307095587D-08 -.370784375766D+00
     .161863863468D-05  .105540407822D-01  .983662903309D-05  .515359064484D+04
     .518384000000D+06  .134110450745D-06  .276304818352D+01  .260770320892D-07
     .939135605533D+00  .179000000000D+03 -.292259601735D+01 -.840392148563D-08
     .326799326789D-09  .100000000000D+01  .165800000000D+04  .000000000000D+00
     .240000000000D+01  .000000000000D+00 -.172294676304D-07  .210000000000D+02
     .511206000000D+06  .400000000000D+01
29 11 10 21 23 59 44.0  .250490847975D-03  .341060513165D-11  .000000000000D+00
     .130000000000D+02 -.601875000000D+02  .440804075545D-08 -.257450229829D+01
    -.316277146339D-05  .213171227369D-02  .960938632488D-05  .515370597076D+04
     .518384000000D+06  .409781932831D-07  .177343809335D+01  .391155481339D-07
     .962003614718D+00  .191093750000D+03 -.116566508199D+01 -.798068957061D-08
    -.953611150304D-10  .100000000000D+01  .165800000000D+04  .000000000000D+00
     .240000000000D+01  .000000000000D+00 -.931322574615D-08  .130000000000D+02
     .511206000000D+06  .400000000000D+01
 1 11 10 22  0  0  0.0  .439020805061D-04  .272848410532D-10  .000000000000D+00
     .970000000000D+02  .266250000000D+02  .457840499466D-08 -.255197557326D+01
     .128149986267D-05  .420607626438D-03  .106282532215D-04  .515366650581D+04
     .518400000000D+06  .521540641785D-07  .277204359218D+01  .745058059692D-08
     .960551198927D+00  .172937500000D+03  .142288201983D+01 -.802283418325D-08
     .404302555110D-09  .100000000000D+01  .165800000000D+04  .000000000000D+00
     .240000000000D+01  .000000000000D+00  .791624188423D-08  .970000000000D+02
     .511206000000D+06  .400000000000D+01
 3 11 10 22  0  0  0.0  .784484669566D-03  .511590769747D-11  .000000000000D+00
     .450000000000D+02 -.775625000000D+02  .530843540336D-08 -.203421968564D+00
    -.401400029659D-05  .148971920134D-01  .879913568497D-05  .515368385887D+04
     .518400000000D+06 -.596046447754D-07  .160255357775D+01  .225380063057D-06
     .929344356271D+00  .196500000000D+03  .114810085743D+01 -.877143679412D-08
    -.125005206969D-09  .100000000000D+01  .165800000000D+04  .000000000000D+00
     .240000000000D+01  .000000000000D+00 -.465661287308D-08  .450000000000D+02
     .511206000000D+06  .400000000000D+01
 4 11 10 22  0  0  0.0  .267528463155D-03  .113686837722D-10  .000000000000D+00
     .520000000000D+02  .260937500000D+02  .504556731099D-08  .282751867899D+01
     .133551657200D-05  .992278708145D-02  .106636434793D-04  .515372881126D+04
     .518400000000D+06 -.447034835815D-07  .278021615039D+01 -.182539224625D-06
     .938223037235D+00  .162875000000D+03  .783722360016D+00 -.806105006081D-08
     .332156692802D-09  .100000000000D+01  .165800000000D+04  .000000000000D+00
     .240000000000D+01  .000000000000D+00 -.651925802231D-08  .520000000000D+02
     .511206000000D+06  .400000000000D+01
 5 11 10 22  0  0  0.0 -.234860461205D-03 -.511590769747D-11  .000000000000D+00
     .540000000000D+02  .219687500000D+02  .522878922863D-08  .164321721587D+01
     .133737921715D-05  .253649300430D-02  .520795583725D-05  .515377617645D+04
     .518400000000D+06  .912696123123D-07 -.245807603609D+01  .912696123123D-07
     .953005125152D+00  .274906250000D+03  .171106355427D+00 -.854535594838D-08
    -.332156692802D-10  .100000000000D+01  .165800000000D+04  .000000000000D+00
     .240000000000D+01  .000000000000D+00 -.102445483208D-07  .540000000000D+02
     .511206000000D+06  .400000000000D+01
 6 11 10 22  0  0  0.0 -.451877713203D-04  .693489710102D-11  .000000000000D+00
     .940000000000D+02 -.792187500000D+02  .499663670140D-08  .176577350566D+01
    -.413134694099D-05  .668159907218D-02  .924430787563D-05  .515370965576D+04
     .518400000000D+06  .949949026108D-07  .167743822276D+01  .931322574615D-07
     .936384697804D+00  .187500000000D+03 -.660798304330D+00 -.828605943335D-08
    -.214651798252D-09  .100000000000D+01  .165800000000D+04  .000000000000D+00
     .240000000000D+01  .000000000000D+00 -.465661287308D-08  .940000000000D+02
     .511206000000D+06  .400000000000D+01
 7 11 10 22  0  0  0.0  .330251641572D-04  .204636307899D-11  .000000000000D+00
     .620000000000D+02  .536562500000D+02  .401802450971D-08 -.188005012823D+01
     .271387398243D-05  .507520884275D-02  .942312180996D-05  .515363614655D+04
     .518400000000D+06 -.186264514923D-07 -.350004573884D+00 -.819563865662D-07
     .975456784925D+00  .205687500000D+03 -.304548569885D+01 -.789175729480D-08
     .261439461432D-09  .100000000000D+01  .165800000000D+04  .000000000000D+00
     .240000000000D+01  .000000000000D+00 -.107102096081D-07  .620000000000D+02
     .511206000000D+06  .400000000000D+01
 8 11 10 22  0  0  0.0  .367872416973D-07  .000000000000D+00  .000000000000D+00
     .290000000000D+02  .519062500000D+02  .358372070492D-08 -.238803857411D+01
     .256858766079D-05  .121559893014D-01  .924803316593D-05  .515374392319D+04
     .518400000000D+06 -.137835741043D-06 -.271400092469D+00 -.225380063057D-06
     .997377507839D+00  .220750000000D+03 -.301573021137D+01 -.762317467868D-08
     .287154818294D-09  .100000000000D+01  .165800000000D+04  .000000000000D+00
     .240000000000D+01  .000000000000D+00 -.419095158577D-08  .290000000000D+02
     .511206000000D+06  .400000000000D+01
 9 11 10 22  0  0  0.0  .113287474960D-03  .250111042988D-11  .000000000000D+00
     .350000000000D+02  .525000000000D+02  .372229790579D-08 -.255597444520D+01
     .281259417534D-05  .171743535902D-01  .904314219952D-05  .515365993690D+04
     .518400000000D+06  .167638063431D-06 -.377337153036D+00  .838190317154D-07
     .984292592149D+00  .216656250000D+03  .160163621401D+01 -.749138347476D-08
     .151077721565D-09  .100000000000D+01  .165800000000D+04  .000000000000D+00
     .240000000000D+01  .000000000000D+00 -.558793544769D-08  .350000000000D+02
     .511206000000D+06  .400000000000D+01
10 11 10 22  0  0  0.0 -.168383121490D-04 -.102318153949D-11  .000000000000D+00
     .350000000000D+02  .252187500000D+02  .534522264998D-08  .193558170269D+01
     .125356018543D-05  .106105118757D-01  .532716512680D-05  .515363632774D+04
     .518400000000D+06 -.277534127235D-06 -.243524757983D+01 -.298023223877D-07
     .947909427455D+00  .272375000000D+03  .710780262485D+00 -.853856995143D-08
    -.214294640518D-11  .100000000000D+01  .165800000000D+04  .000000000000D+00
     .240000000000D+01  .000000000000D+00 -.232830643654D-08  .350000000000D+02
     .511206000000D+06  .400000000000D+01
